CENTISPACE-1 S5         
1 54020U 22126A   24171.48873042  .00001025  00000+0  25140-3 0  9997
2 54020  54.9983 239.0259 0011505 228.2910 131.7099 14.59732586 90624
CENTISPACE-1 S6         
1 54021U 22126B   24171.47389343  .00000757  00000+0  19600-3 0  9998
2 54021  54.9985 238.9535 0012846 232.0095 127.9738 14.59667505 90612
OTB-3-GAZELLE           
1 54023U 22127A   24170.92430310  .00000256  00000+0  90958-4 0  9991
2 54023  98.3426 165.1874 0012376 222.1861 137.8378 14.42114510 89378
ASO-S                   
1 54029U 22129A   24171.52419432  .00000344  00000+0  97422-4 0  9999
2 54029  98.2678 176.5957 0014799 162.6710 197.4993 14.51365043 89848
HJ-2E                   
1 54035U 22132A   24171.51056799  .00009901  00000+0  44611-3 0  9991
2 54035  97.3833 177.8683 0012096 243.9306 116.0685 15.21184813 93718
COSMOS 2561             
1 54109U 22137A   24170.89067577  .00015903  00000+0  32401-3 0  9997
2 54109  97.0198 247.8675 0012958 130.2275 230.0111 15.46224266 93894
GONETS-M 23             
1 54150U 22139A   24171.48326488  .00000022  00000+0  88024-4 0  9999
2 54150  82.5061  80.4910 0022116  12.6640 347.4991 12.42905545 75244
GONETS-M 24             
1 54151U 22139B   24171.53633465  .00000011  00000+0  52196-5 0  9992
2 54151  82.4980  80.0105 0017318  22.8591 337.3256 12.42869774 75258
GONETS-M 25             
1 54152U 22139C   24171.52348175  .00000019  00000+0  66366-4 0  9994
2 54152  82.5045  80.3171 0020962  21.0778 339.1161 12.42895615 75253
SKIF-D                  
1 54153U 22139D   24170.37249534 -.00000003  00000+0  00000+0 0  9998
2 54153  89.9908  96.7962 0006725  47.0318 313.0719  5.00438523 27648
MATS                    
1 54227U 22147A   24171.15242229  .00003873  00000+0  33826-3 0  9993
2 54227  97.6643 169.6851 0014542 120.9052 239.3602 14.97297343 88491
JILIN-1 GAOFEN 03D54    
1 54254U 22155D   24171.52671275  .00011933  00000+0  50228-3 0  9991
2 54254  97.5628 282.2108 0012258  80.2957 279.9663 15.23460548 88029
EOS-6 (OCEANSAT-3)      
1 54361U 22158A   24171.50683612  .00000439  00000+0  13259-3 0  9991
2 54361  98.3529 268.5035 0001311 116.3769 243.7558 14.47003556 82600
ANAND                   
1 54366U 22158F   24171.53826489  .00070027  00000+0  91714-3 0  9992
2 54366  97.4374 280.0844 0002052  65.0631 295.0838 15.58363262 87513
ASTROCAST-0304          
1 54367U 22158G   24171.51386080  .00011407  00000+0  34637-3 0  9997
2 54367  97.4417 274.4399 0008957  79.4036 280.8216 15.34208749 87112
ASTROCAST-0303          
1 54368U 22158H   24171.54558392  .00012211  00000+0  37066-3 0  9991
2 54368  97.4443 274.9389 0008024  85.3786 274.8374 15.34209635 87145
ASTROCAST-0302          
1 54369U 22158J   24171.54517605  .00011355  00000+0  34412-3 0  9994
2 54369  97.4446 274.7496 0008051  89.6462 270.5703 15.34278077 87138
ASTROCAST-0301          
1 54370U 22158K   24171.52989974  .00013306  00000+0  40327-3 0  9996
2 54370  97.4466 274.8599 0006865  91.1112 269.0917 15.34246470 87130
2022-167A               
1 54682U 22167A   24171.53237278  .00042732  00000+0  10203-2 0  9990
2 54682  97.5947 318.6771 0007042 136.9295 223.2503 15.41380719 84849
CAS-5A (FO-118)         
1 54684U 22167C   24171.55434204  .00023217  00000+0  79102-3 0  9993
2 54684  97.6048 316.4376 0010914 139.0357 221.1705 15.30335295 84664
DONGPO 09               
1 54685U 22167D   24171.53774916  .00009963  00000+0  46359-3 0  9999
2 54685  97.6145 313.8445 0005976 149.9137 210.2442 15.20132480 84464
DONGPO 08               
1 54686U 22167E   24171.55407183  .00009956  00000+0  46338-3 0  9990
2 54686  97.6093 313.4740 0009528 167.3736 192.7739 15.20101289 84463
2022-167F               
1 54687U 22167F   24171.52076489  .00012450  00000+0  62380-3 0  9997
2 54687  97.5954 313.1476 0009233 141.9546 218.2341 15.17475864 84475
DONGPO 10               
1 54689U 22167H   24171.53080321  .00009856  00000+0  45850-3 0  9999
2 54689  97.6173 314.0299 0011239 143.5385 216.6617 15.20104023 84469
2022-167M               
1 54693U 22167M   24171.50884539  .00060748  00000+0  12250-2 0  9998
2 54693  97.5981 320.3354 0007727 143.9286 216.2486 15.46308951 84883
JILIN-1 GAOFEN 03D48    
1 54695U 22167P   24171.54448389  .00010297  00000+0  47724-3 0  9992
2 54695  97.6108 313.7196 0012972 146.7723 213.4328 15.20199925 84472
STAR VIBE               
1 55009U 23001A   24171.51760312  .00007366  00000+0  34548-3 0  9993
2 55009  97.4242 229.2287 0009317 176.3004 183.8302 15.19920831 80868
BRO-8                   
1 55011U 23001C   24171.48401489  .00005567  00000+0  26671-3 0  9998
2 55011  97.4310 229.5356 0010306 178.2378 181.8895 15.19288385 80857
CONNECTA T1.2           
1 55012U 23001D   24170.73440791  .00007511  00000+0  32496-3 0  9998
2 55012  97.4319 229.8678 0010973 173.6401 186.4977 15.22673933 80801
BIRKELAND               
1 55015U 23001G   24171.49510844  .00005250  00000+0  23040-3 0  9995
2 55015  97.4322 231.0684 0010001 167.0664 193.0831 15.22342890 80954
ION SCV-008             
1 55051U 23001AU  24171.30902362  .00005048  00000+0  27370-3 0  9990
2 55051  97.6130 250.0527 0020690  39.0327 321.2393 15.14858392 80609
ION SCV-007             
1 55060U 23001BD  24170.76158434  .00000747  00000+0  11595-3 0  9995
2 55060  97.9983 233.5367 0013186 159.2757 200.8989 14.75963596 78733
NSL-2                   
1 55067U 23001BL  24171.13799937  .00406017  00000+0  22724-2 0  9998
2 55067  97.4147 241.3963 0006931 192.7655 167.3437 15.78213148 81616
TAUSAT-2                
1 55073U 23001BS  24170.94209707  .00023204  00000+0  73770-3 0  9995
2 55073  97.4257 233.7514 0013473 138.5248 221.7019 15.32533809 81101
FLOCK 4Y-23             
1 55080U 23001BZ  24171.16856545  .00012497  00000+0  44271-3 0  9992
2 55080  97.4268 233.3702 0013943 154.8337 205.3586 15.29162529 81108
HUYGENS                 
1 55093U 23001CN  24171.42964597  .00015863  00000+0  68773-3 0  9995
2 55093  97.4268 230.9626 0014819 151.5751 208.6297 15.22351174 80964
BDSAT-2                 
1 55098U 23001CT  24170.42080524  .00026288  00000+0  79767-3 0  9996
2 55098  97.4284 233.7637 0013072 151.1081 209.0888 15.33999054 81040
SHARJAHSAT-1            
1 55104U 23001CZ  24171.49583459  .00008053  00000+0  36540-3 0  9999
2 55104  97.4262 229.6942 0010820 177.8981 182.2302 15.21023056 80880
2023-003A               
1 55133U 23003A   24171.51873497  .00012282  00000+0  48311-3 0  9998
2 55133  97.2250 245.2307 0004980 202.7788 157.3230 15.25777712 80038
2023-007N               
1 55260U 23007N   24171.53606002  .01287924  11097-2  13100-2 0  9997
2 55260  97.2904 256.7852 0013497 249.3059 110.6778 16.10963783 80510
2023-007P               
1 55261U 23007P   24171.50341858  .00061830  00000+0  80346-3 0  9991
2 55261  97.3111 251.1285 0006644 218.1477 141.9310 15.58582180 80131
EOS-7                   
1 55562U 23019A   24171.48260837  .00020249  00000+0  34328-3 0  9990
2 55562  37.1765 220.7394 0003634 143.4612 216.6399 15.50734245 76654
HORUS 1                 
1 55690U 23025A   24171.49614615  .00008537  00000+0  36019-3 0  9992
2 55690  97.4236 246.7673 0003913 110.8383 249.3273 15.23531159 73266
HORUS 2                 
1 55844U 23032A   24171.46514392  .00007859  00000+0  33533-3 0  9993
2 55844  97.4286 246.9465 0003921 141.5598 218.5919 15.23176402 70696
GLOBAL-19               
1 55982U 23041B   24171.17918237  .00018120  00000+0  48033-3 0  9994
2 55982  42.0094 129.1362 0002982 231.3561 128.7011 15.37956026 69791
DEWASAT-2               
1 56180U 23054C   24171.50338455  .00037167  00000+0  80267-3 0  9991
2 56180  97.3693  69.9746 0007632 145.6086 214.5658 15.44408736 66520
KILICSAT                
1 56181U 23054D   24171.52794657  .00024450  00000+0  62757-3 0  9999
2 56181  97.3629  68.7777 0007852 148.6276 211.5439 15.39287932 66474
SSS-2B                  
1 56184U 23054G   24171.55530212  .00028693  00000+0  69073-3 0  9991
2 56184  97.3699  69.5660 0008517 147.0796 213.0983 15.41203520 66502
BRO-9                   
1 56185U 23054H   24171.45323677  .00008296  00000+0  28362-3 0  9999
2 56185  97.3628  66.6139 0008444 153.0230 207.1451 15.30492724 66332
CIRBE                   
1 56188U 23054L   24171.22703827  .00057863  00000+0  91994-3 0  9991
2 56188  97.3626  71.1849 0007647 135.2842 224.9029 15.53098331 66606
ION SCV-010             
1 56192U 23054Q   24171.22856486  .00003817  00000+0  22284-3 0  9992
2 56192  97.4703  59.9031 0006490 239.7899 120.2690 15.12506837 65513
GHOST-1                 
1 56195U 23054T   24171.21942758  .00011053  00000+0  36903-3 0  9996
2 56195  97.3647  66.7503 0010109 144.3883 215.8034 15.31163985 66314
GHOST-2                 
1 56197U 23054V   24171.21560009  .00012585  00000+0  39583-3 0  9991
2 56197  97.3640  67.3286 0010422 143.3657 216.8300 15.33044677 66359
TOMORROW-R1             
1 56199U 23054X   24171.21134873  .00018480  00000+0  51644-3 0  9991
2 56199  97.3664  68.3684 0009677 141.7898 218.4034 15.36698098 66413
FACSAT-2                
1 56205U 23054AD  24171.52043701  .00011879  00000+0  34757-3 0  9993
2 56205  97.3691  68.9936 0013272 134.7769 225.4557 15.35318729 66475
CONNECTA T2.1           
1 56210U 23054AJ  24171.54226236  .00012890  00000+0  38680-3 0  9990
2 56210  97.3614  68.0773 0012138 132.2622 227.9652 15.34515351 66446
INSPIRE-SAT 7           
1 56211U 23054AK  24171.21392019  .00069067  00000+0  10182-2 0  9992
2 56211  97.3634  72.4421 0010999 120.7410 239.4929 15.55099807 66674
ROSEYCUBESAT-1          
1 56212U 23054AL  24171.52947878  .00091361  00000+0  11223-2 0  9995
2 56212  97.3654  73.5795 0011536 120.3867 239.8531 15.59909186 66771
LS3C                    
1 56214U 23054AN  24171.23724779  .00045350  00000+0  80507-3 0  9997
2 56214  97.3628  71.5398 0011133 122.1766 238.0567 15.50016377 66639
